CCSDS_OMM_VERS = 2.0
CREATION_DATE  = 
ORIGINATOR     = 

OBJECT_NAME    = COSMOS 1892
OBJECT_ID      = 1987-088A
CENTER_NAME    = EARTH
REF_FRAME      = TEME
TIME_SYSTEM    = UTC
MEAN_ELEMENT_THEORY = SGP/SGP4

EPOCH          = 2025-11-03T16:10:34.675680
MEAN_MOTION    = 15.93070818
ECCENTRICITY   = .00052365
INCLINATION    = 82.4682
RA_OF_ASC_NODE = 87.7264
ARG_OF_PERICENTER = 304.3326
MEAN_ANOMALY   = 55.7452

EPHEMERIS_TYPE = 0
CLASSIFICATION_TYPE = U
NORAD_CAT_ID   = 18421
ELEMENT_SET_NO = 999
REV_AT_EPOCH   = 8506
BSTAR          = .75742375E-3
MEAN_MOTION_DOT = .26402E-2
MEAN_MOTION_DDOT = .24910505E-4

CCSDS_OMM_VERS = 2.0
CREATION_DATE  = 
ORIGINATOR     = 

OBJECT_NAME    = SL-14 R/B
OBJECT_ID      = 1988-001B
CENTER_NAME    = EARTH
REF_FRAME      = TEME
TIME_SYSTEM    = UTC
MEAN_ELEMENT_THEORY = SGP/SGP4

EPOCH          = 2025-11-03T23:26:49.533216
MEAN_MOTION    = 14.85359814
ECCENTRICITY   = .00166212
INCLINATION    = 82.5108
RA_OF_ASC_NODE = 313.6146
ARG_OF_PERICENTER = 296.5369
MEAN_ANOMALY   = 63.4142

EPHEMERIS_TYPE = 0
CLASSIFICATION_TYPE = U
NORAD_CAT_ID   = 18749
ELEMENT_SET_NO = 999
REV_AT_EPOCH   = 2336
BSTAR          = .70372911E-4
MEAN_MOTION_DOT = .63E-5
MEAN_MOTION_DDOT = 0

CCSDS_OMM_VERS = 2.0
CREATION_DATE  = 
ORIGINATOR     = 

OBJECT_NAME    = COSMOS 1933
OBJECT_ID      = 1988-020A
CENTER_NAME    = EARTH
REF_FRAME      = TEME
TIME_SYSTEM    = UTC
MEAN_ELEMENT_THEORY = SGP/SGP4

EPOCH          = 2025-11-03T21:33:56.499840
MEAN_MOTION    = 15.16650818
ECCENTRICITY   = .00029106
INCLINATION    = 82.5167
RA_OF_ASC_NODE = 15.2399
ARG_OF_PERICENTER = 278.6212
MEAN_ANOMALY   = 81.4692

EPHEMERIS_TYPE = 0
CLASSIFICATION_TYPE = U
NORAD_CAT_ID   = 18958
ELEMENT_SET_NO = 999
REV_AT_EPOCH   = 3115
BSTAR          = .23520765E-3
MEAN_MOTION_DOT = .4629E-4
MEAN_MOTION_DDOT = 0

CCSDS_OMM_VERS = 2.0
CREATION_DATE  = 
ORIGINATOR     = 

OBJECT_NAME    = SL-3 R/B
OBJECT_ID      = 1988-032B
CENTER_NAME    = EARTH
REF_FRAME      = TEME
TIME_SYSTEM    = UTC
MEAN_ELEMENT_THEORY = SGP/SGP4

EPOCH          = 2025-11-03T21:58:12.725184
MEAN_MOTION    = 15.18130117
ECCENTRICITY   = .00256108
INCLINATION    = 97.5036
RA_OF_ASC_NODE = 286.9294
ARG_OF_PERICENTER = 315.6153
MEAN_ANOMALY   = 44.3028

EPHEMERIS_TYPE = 0
CLASSIFICATION_TYPE = U
NORAD_CAT_ID   = 19046
ELEMENT_SET_NO = 999
REV_AT_EPOCH   = 3301
BSTAR          = .31163345E-3
MEAN_MOTION_DOT = .6345E-4
MEAN_MOTION_DDOT = 0

CCSDS_OMM_VERS = 2.0
CREATION_DATE  = 
ORIGINATOR     = 

OBJECT_NAME    = SL-16 R/B
OBJECT_ID      = 1988-039B
CENTER_NAME    = EARTH
REF_FRAME      = TEME
TIME_SYSTEM    = UTC
MEAN_ELEMENT_THEORY = SGP/SGP4

EPOCH          = 2025-11-03T18:43:45.652800
MEAN_MOTION    = 14.19586173
ECCENTRICITY   = .00216766
INCLINATION    = 71.0150
RA_OF_ASC_NODE = 334.7772
ARG_OF_PERICENTER = 179.5494
MEAN_ANOMALY   = 180.5655

EPHEMERIS_TYPE = 0
CLASSIFICATION_TYPE = U
NORAD_CAT_ID   = 19120
ELEMENT_SET_NO = 999
REV_AT_EPOCH   = 94051
BSTAR          = .16918728E-4
MEAN_MOTION_DOT = -.12E-6
MEAN_MOTION_DDOT = 0

CCSDS_OMM_VERS = 2.0
CREATION_DATE  = 
ORIGINATOR     = 

OBJECT_NAME    = COSMOS 1953
OBJECT_ID      = 1988-050A
CENTER_NAME    = EARTH
REF_FRAME      = TEME
TIME_SYSTEM    = UTC
MEAN_ELEMENT_THEORY = SGP/SGP4

EPOCH          = 2025-11-03T21:37:10.118784
MEAN_MOTION    = 15.26299708
ECCENTRICITY   = .00111128
INCLINATION    = 82.5058
RA_OF_ASC_NODE = 284.5382
ARG_OF_PERICENTER = 196.6467
MEAN_ANOMALY   = 163.4408

EPHEMERIS_TYPE = 0
CLASSIFICATION_TYPE = U
NORAD_CAT_ID   = 19210
ELEMENT_SET_NO = 999
REV_AT_EPOCH   = 1858
BSTAR          = .22457318E-3
MEAN_MOTION_DOT = .5867E-4
MEAN_MOTION_DDOT = 0

CCSDS_OMM_VERS = 2.0
CREATION_DATE  = 
ORIGINATOR     = 

OBJECT_NAME    = SL-8 R/B
OBJECT_ID      = 1988-053B
CENTER_NAME    = EARTH
REF_FRAME      = TEME
TIME_SYSTEM    = UTC
MEAN_ELEMENT_THEORY = SGP/SGP4

EPOCH          = 2025-11-03T20:01:43.788576
MEAN_MOTION    = 14.38823233
ECCENTRICITY   = .00204338
INCLINATION    = 74.0481
RA_OF_ASC_NODE = 344.4261
ARG_OF_PERICENTER = 199.9668
MEAN_ANOMALY   = 333.2818

EPHEMERIS_TYPE = 0
CLASSIFICATION_TYPE = U
NORAD_CAT_ID   = 19257
ELEMENT_SET_NO = 999
REV_AT_EPOCH   = 95849
BSTAR          = .11010108E-3
MEAN_MOTION_DOT = .313E-5
MEAN_MOTION_DDOT = 0

CCSDS_OMM_VERS = 2.0
CREATION_DATE  = 
ORIGINATOR     = 

OBJECT_NAME    = COSMOS 1975
OBJECT_ID      = 1988-093A
CENTER_NAME    = EARTH
REF_FRAME      = TEME
TIME_SYSTEM    = UTC
MEAN_ELEMENT_THEORY = SGP/SGP4

EPOCH          = 2025-11-03T13:39:25.773120
MEAN_MOTION    = 15.25531811
ECCENTRICITY   = .00093135
INCLINATION    = 82.5212
RA_OF_ASC_NODE = 244.0104
ARG_OF_PERICENTER = 253.6737
MEAN_ANOMALY   = 106.3477

EPHEMERIS_TYPE = 0
CLASSIFICATION_TYPE = U
NORAD_CAT_ID   = 19573
ELEMENT_SET_NO = 999
REV_AT_EPOCH   = 16
BSTAR          = .46166623E-3
MEAN_MOTION_DOT = .11752E-3
MEAN_MOTION_DDOT = 0

CCSDS_OMM_VERS = 2.0
CREATION_DATE  = 
ORIGINATOR     = 

OBJECT_NAME    = SL-14 R/B
OBJECT_ID      = 1988-093B
CENTER_NAME    = EARTH
REF_FRAME      = TEME
TIME_SYSTEM    = UTC
MEAN_ELEMENT_THEORY = SGP/SGP4

EPOCH          = 2025-11-03T12:15:01.450080
MEAN_MOTION    = 14.85488951
ECCENTRICITY   = .00223363
INCLINATION    = 82.5307
RA_OF_ASC_NODE = 160.4809
ARG_OF_PERICENTER = 95.1349
MEAN_ANOMALY   = 353.5502

EPHEMERIS_TYPE = 0
CLASSIFICATION_TYPE = U
NORAD_CAT_ID   = 19574
ELEMENT_SET_NO = 999
REV_AT_EPOCH   = 98230
BSTAR          = .58473806E-4
MEAN_MOTION_DOT = .531E-5
MEAN_MOTION_DDOT = 0

CCSDS_OMM_VERS = 2.0
CREATION_DATE  = 
ORIGINATOR     = 

OBJECT_NAME    = SL-16 R/B
OBJECT_ID      = 1988-102B
CENTER_NAME    = EARTH
REF_FRAME      = TEME
TIME_SYSTEM    = UTC
MEAN_ELEMENT_THEORY = SGP/SGP4

EPOCH          = 2025-11-03T14:36:29.409408
MEAN_MOTION    = 14.16130881
ECCENTRICITY   = .00152521
INCLINATION    = 71.0008
RA_OF_ASC_NODE = 56.7754
ARG_OF_PERICENTER = 211.2542
MEAN_ANOMALY   = 148.7676

EPHEMERIS_TYPE = 0
CLASSIFICATION_TYPE = U
NORAD_CAT_ID   = 19650
ELEMENT_SET_NO = 999
REV_AT_EPOCH   = 90904
BSTAR          = .13868768E-4
MEAN_MOTION_DOT = -.2E-6
MEAN_MOTION_DDOT = 0

CCSDS_OMM_VERS = 2.0
CREATION_DATE  = 
ORIGINATOR     = 

OBJECT_NAME    = INTERCOSMOS 24
OBJECT_ID      = 1989-080A
CENTER_NAME    = EARTH
REF_FRAME      = TEME
TIME_SYSTEM    = UTC
MEAN_ELEMENT_THEORY = SGP/SGP4

EPOCH          = 2025-11-03T23:18:22.885344
MEAN_MOTION    = 12.59353234
ECCENTRICITY   = .11877479
INCLINATION    = 82.6089
RA_OF_ASC_NODE = 186.1616
ARG_OF_PERICENTER = 224.4701
MEAN_ANOMALY   = 125.4894

EPHEMERIS_TYPE = 0
CLASSIFICATION_TYPE = U
NORAD_CAT_ID   = 20261
ELEMENT_SET_NO = 999
REV_AT_EPOCH   = 65097
BSTAR          = .19885849E-3
MEAN_MOTION_DOT = .674E-5
MEAN_MOTION_DDOT = 0

CCSDS_OMM_VERS = 2.0
CREATION_DATE  = 
ORIGINATOR     = 

OBJECT_NAME    = SL-14 R/B
OBJECT_ID      = 1989-080C
CENTER_NAME    = EARTH
REF_FRAME      = TEME
TIME_SYSTEM    = UTC
MEAN_ELEMENT_THEORY = SGP/SGP4

EPOCH          = 2025-11-03T20:36:23.966208
MEAN_MOTION    = 12.50372244
ECCENTRICITY   = .1231476
INCLINATION    = 82.5916
RA_OF_ASC_NODE = 253.9720
ARG_OF_PERICENTER = 112.4000
MEAN_ANOMALY   = 261.2088

EPHEMERIS_TYPE = 0
CLASSIFICATION_TYPE = U
NORAD_CAT_ID   = 20262
ELEMENT_SET_NO = 999
REV_AT_EPOCH   = 64442
BSTAR          = .73964866E-4
MEAN_MOTION_DOT = .278E-5
MEAN_MOTION_DDOT = 0

