COSMOS 1892             
1 18421U 87088A   25307.67401245  .00264020  24911-4  75742-3 0  9996
2 18421  82.4682  87.7264 0005236 304.3326  55.7452 15.93070818 85068
SL-14 R/B               
1 18749U 88001B   25307.97696219  .00000630  00000+0  70373-4 0  9994
2 18749  82.5108 313.6146 0016621 296.5369  63.4142 14.85359814 23367
COSMOS 1933             
1 18958U 88020A   25307.89857060  .00004629  00000+0  23521-3 0  9995
2 18958  82.5167  15.2399 0002910 278.6212  81.4692 15.16650818 31152
SL-3 R/B                
1 19046U 88032B   25307.91542506  .00006345  00000+0  31163-3 0  9994
2 19046  97.5036 286.9294 0025610 315.6153  44.3028 15.18130117 33016
SL-16 R/B               
1 19120U 88039B   25307.78038950 -.00000012  00000+0  16919-4 0  9991
2 19120  71.0150 334.7772 0021676 179.5494 180.5655 14.19586173940517
COSMOS 1953             
1 19210U 88050A   25307.90081156  .00005867  00000+0  22457-3 0  9999
2 19210  82.5058 284.5382 0011112 196.6467 163.4408 15.26299708 18587
SL-8 R/B                
1 19257U 88053B   25307.83453459  .00000313  00000+0  11010-3 0  9998
2 19257  74.0481 344.4261 0020433 199.9668 333.2818 14.38823233958494
COSMOS 1975             
1 19573U 88093A   25307.56904830  .00011752  00000+0  46167-3 0  9997
2 19573  82.5212 244.0104 0009313 253.6737 106.3477 15.25531811   168
SL-14 R/B               
1 19574U 88093B   25307.51043345  .00000531  00000+0  58474-4 0  9996
2 19574  82.5307 160.4809 0022336  95.1349 353.5502 14.85488951982306
SL-16 R/B               
1 19650U 88102B   25307.60867372 -.00000020  00000+0  13869-4 0  9999
2 19650  71.0008  56.7754 0015252 211.2542 148.7676 14.16130881909049
INTERCOSMOS 24          
1 20261U 89080A   25307.97109821  .00000674  00000+0  19886-3 0  9991
2 20261  82.6089 186.1616 1187747 224.4701 125.4894 12.59353234650977
SL-14 R/B               
1 20262U 89080C   25307.85861072  .00000278  00000+0  73965-4 0  9991
2 20262  82.5916 253.9720 1231476 112.4000 261.2088 12.50372244644422
